{
  "norad_id": 62740,
  "name": "STARLINK-32805",
  "history": [
    {
      "epoch": "2026-03-28T22:01:45.455808",
      "apogee_km": 485.3128466234266,
      "perigee_km": 480.62040063315453,
      "latitude_deg": 2.254251719329986,
      "longitude_deg": -177.8828268800862,
      "semi_major_axis_km": 6861.10362362829,
      "eccentricity": 0.00034196,
      "inclination_deg": 43.0028,
      "raan_deg": 46.1872,
      "arg_perigee_deg": 282.4069,
      "mean_anomaly_deg": 77.64,
      "mean_motion_rev_day": 15.27607543
    },
    {
      "epoch": "2026-03-29T04:18:22.658688",
      "apogee_km": 483.6978024805103,
      "perigee_km": 482.196597257579,
      "latitude_deg": 35.96697223243844,
      "longitude_deg": -152.77482367982157,
      "semi_major_axis_km": 6861.084199869045,
      "eccentricity": 0.0001094,
      "inclination_deg": 43.0036,
      "raan_deg": 44.7082,
      "arg_perigee_deg": 275.1435,
      "mean_anomaly_deg": 84.9291,
      "mean_motion_rev_day": 15.2761403
    }
  ]
}